NORAD_CAT_ID,OBJECT_NAME,OBJECT_TYPE,EPOCH,MEAN_MOTION,ECCENTRICITY,INCLINATION,RA_OF_ASC_NODE,ARG_OF_PERICENTER,MEAN_ANOMALY,BSTAR,MEAN_MOTION_DOT,MEAN_MOTION_DDOT,TLE_LINE0,TLE_LINE1,TLE_LINE2,SEMIMAJOR_AXIS,PERIOD,APOGEE,PERIGEE,DECAYED
51104.0,STARLINK-3366,PAYLOAD,2022-09-14 08:00:56,15.08840341,0.0001899999999999,53.2187,240.9451,62.9699,297.1487,-2.8745e-05,-7.46e-06,0.0,0 STARLINK-3366,1 51104U 22005A   22257.33398577 -.00000746  00000-0 -28745-4 0  9992,2 51104  53.2187 240.9451 0001900  62.9699 297.1487 15.08840341 36792,6917.879,95.438,541.059,538.43,0.0
51104.0,STARLINK-3366,PAYLOAD,2022-09-15 06:16:19,15.088456900000002,0.000196,53.2174,236.7789,53.521,306.5962,0.00028624,4.271e-05,0.0,0 STARLINK-3366,1 51104U 22005A   22258.26133936  .00004271  00000-0  28624-3 0  9991,2 51104  53.2174 236.7789 0001960  53.5210 306.5962 15.08845690 36937,6917.863,95.437,541.0840000000002,538.372,0.0
51104.0,STARLINK-3366,PAYLOAD,2022-09-15 15:48:38,15.08843842,0.0001996,53.2175,234.9951,54.2294,305.8884,0.0002098,3.053e-05,0.0,0 STARLINK-3366,1 51104U 22005A   22258.65878279  .00003053  00000-0  20980-3 0  9994,2 51104  53.2175 234.9951 0001996  54.2294 305.8884 15.08843842 38101,6917.869000000002,95.437,541.114,538.3530000000002,0.0
51104.0,STARLINK-3366,PAYLOAD,2022-09-16 07:42:29,15.08849779,0.0001857,53.2178,232.0217,53.9865,306.1299,0.00013431,1.851e-05,0.0,0 STARLINK-3366,1 51104U 22005A   22259.32117906  .00001851  00000-0  13431-3 0  9999,2 51104  53.2178 232.0217 0001857  53.9865 306.1299 15.08849779 37090,6917.85,95.437,541.0,538.431,0.0
51104.0,STARLINK-3366,PAYLOAD,2022-09-16 15:39:25,15.0884354,0.0001916,53.2177,230.5342,53.9524,306.1646,5.6254e-05,6.07e-06,0.0,0 STARLINK-3366,1 51104U 22005A   22259.65238386  .00000607  00000-0  56254-4 0  9990,2 51104  53.2177 230.5342 0001916  53.9524 306.1646 15.08843540 37141,6917.87,95.437,541.06,538.409,0.0
51104.0,STARLINK-3366,PAYLOAD,2022-09-17 04:22:31,15.08836502,0.0001902,53.2177,228.1551,56.9031,303.2144,-9.8131e-05,-1.849e-05,0.0,0 STARLINK-3366,1 51104U 22005A   22260.18231090 -.00001849  00000-0 -98131-4 0  9996,2 51104  53.2177 228.1551 0001902  56.9031 303.2144 15.08836502 38330,6917.891,95.438,541.072,538.44,0.0
51104.0,STARLINK-3366,PAYLOAD,2022-09-17 07:33:17,15.0883661,0.0001889,53.2183,227.5602,54.8251,305.2918,-9.1136e-05,-1.738e-05,0.0,0 STARLINK-3366,1 51104U 22005A   22260.31479056 -.00001738  00000-0 -91136-4 0  9992,2 51104  53.2183 227.5602 0001889  54.8251 305.2918 15.08836610 37242,6917.891,95.438,541.063,538.4490000000002,0.0
51104.0,STARLINK-3366,PAYLOAD,2022-09-17 15:30:13,15.08838331,0.0001874,53.2179,226.0737,56.8241,303.2931,-3.6507e-05,-8.69e-06,0.0,0 STARLINK-3366,1 51104U 22005A   22260.64598810 -.00000869  00000-0 -36507-4 0  9993,2 51104  53.2179 226.0737 0001874  56.8241 303.2931 15.08838331 37295,6917.885,95.438,541.047,538.4540000000002,0.0
51104.0,STARLINK-3366,PAYLOAD,2022-09-18 02:37:54,15.08844277,0.0001889999999999,53.2179,223.9919,56.9693,303.148,2.518800000000001e-05,1.13e-06,0.0,0 STARLINK-3366,1 51104U 22005A   22261.10966218  .00000113  00000-0  25188-4 0  9999,2 51104  53.2179 223.9919 0001890  56.9693 303.1480 15.08844277 38478,6917.8669999999975,95.437,541.04,538.425,0.0
51104.0,STARLINK-3366,PAYLOAD,2022-09-18 04:13:17,15.0884583,0.0001821,53.2184,223.6948,55.213,304.9033,2.7161e-05,1.44e-06,0.0,0 STARLINK-3366,1 51104U 22005A   22261.17590116  .00000144  00000-0  27161-4 0  9993,2 51104  53.2184 223.6948 0001821  55.2130 304.9033 15.08845830 37372,6917.863,95.437,540.987,538.4680000000002,0.0
51104.0,STARLINK-3366,PAYLOAD,2022-09-19 04:04:05,15.08837374,0.0001816,53.2182,219.2348,52.9014,307.2144,0.00013928,1.929e-05,0.0,0 STARLINK-3366,1 51104U 22005A   22262.16950314  .00001929  00000-0  13928-3 0  9990,2 51104  53.2182 219.2348 0001816  52.9014 307.2144 15.08837374 38637,6917.888000000001,95.438,541.01,538.497,0.0
51104.0,STARLINK-3366,PAYLOAD,2022-09-19 07:14:51,15.08839,0.0001823,53.2181,218.64,52.8403,307.2756,0.00014836,2.074e-05,0.0,0 STARLINK-3366,1 51104U 22005A   22262.30198227  .00002074  00000-0  14836-3 0  9994,2 51104  53.2181 218.6400 0001823  52.8403 307.2756 15.08839000 37543,6917.8830000000025,95.438,541.01,538.487,0.0
51104.0,STARLINK-3366,PAYLOAD,2022-09-20 05:30:15,15.08844255,0.0001838,53.2181,214.4764,51.1799,308.9357,3.0141e-05,1.92e-06,0.0,0 STARLINK-3366,1 51104U 22005A   22263.22934148  .00000192  00000-0  30141-4 0  9993,2 51104  53.2181 214.4764 0001838  51.1799 308.9357 15.08844255 38797,6917.8669999999975,95.437,541.004,538.461,0.0
51104.0,STARLINK-3366,PAYLOAD,2022-09-20 13:27:11,15.08834416,0.0001844,53.2182,212.9899,50.6655,309.4501,-5.2569e-05,-1.125e-05,0.0,0 STARLINK-3366,1 51104U 22005A   22263.56054979 -.00001125  00000-0 -52569-4 0  9992,2 51104  53.2182 212.9899 0001844  50.6655 309.4501 15.08834416 37730,6917.897,95.438,541.038,538.487,0.0
51104.0,STARLINK-3366,PAYLOAD,2022-09-21 06:56:25,15.08840808,0.0001927,53.2186,209.7185,53.0284,307.0884,3.8416e-05,3.23e-06,0.0,0 STARLINK-3366,1 51104U 22005A   22264.28918406  .00000323  00000-0  38416-4 0  9998,2 51104  53.2186 209.7185 0001927  53.0284 307.0884 15.08840808 38958,6917.878000000002,95.438,541.076,538.41,0.0
51104.0,STARLINK-3366,PAYLOAD,2022-09-23 03:27:13,15.08838708,0.0001561,53.2177,201.3928,57.3087,302.8055,7.6057e-05,9.23e-06,0.0,0 STARLINK-3366,1 51104U 22005A   22266.14390618  .00000923  00000-0  76057-4 0  9993,2 51104  53.2177 201.3928 0001561  57.3087 302.8055 15.08838708 39234,6917.884,95.438,540.8290000000002,538.669,0.0
51104.0,STARLINK-3366,PAYLOAD,2022-09-23 12:59:31,15.08844962,0.0001737,53.2176,199.6097,54.7619,305.3536,9.3137e-05,1.195e-05,0.0,0 STARLINK-3366,1 51104U 22005A   22266.54134220  .00001195  00000-0  93137-4 0  9992,2 51104  53.2176 199.6097 0001737  54.7619 305.3536 15.08844962 38180,6917.865,95.437,540.932,538.529,0.0
51104.0,STARLINK-3366,PAYLOAD,2022-09-23 19:21:05,15.08834924,0.0001661,53.2176,198.4203,54.8708,305.244,1.4771e-05,-5.3e-07,0.0,0 STARLINK-3366,1 51104U 22005A   22266.80631146 -.00000053  00000-0  14771-4 0  9990,2 51104  53.2176 198.4203 0001661  54.8708 305.2440 15.08834924 38227,6917.896,95.438,540.91,538.612,0.0
51104.0,STARLINK-3366,PAYLOAD,2022-09-24 12:50:19,15.08838529,0.0001753,53.2177,195.1495,52.9624,307.1528,5.6805e-05,6.16e-06,0.0,0 STARLINK-3366,1 51104U 22005A   22267.53494907  .00000616  00000-0  56805-4 0  9991,2 51104  53.2177 195.1495 0001753  52.9624 307.1528 15.08838529 39441,6917.885,95.438,540.9630000000002,538.5369999999998,0.0
51104.0,STARLINK-3366,PAYLOAD,2022-09-24 19:11:52,15.08840233,0.0001744,53.2176,193.9601,53.1732,306.942,7.5169e-05,9.08e-06,0.0,0 STARLINK-3366,1 51104U 22005A   22267.79990839  .00000908  00000-0  75169-4 0  9992,2 51104  53.2176 193.9601 0001744  53.1732 306.9420 15.08840233 38372,6917.88,95.438,540.951,538.538,0.0
51104.0,STARLINK-3366,PAYLOAD,2022-09-25 12:41:06,15.08846355,0.0001751999999999,53.217,190.689,52.2892,307.8258,0.00019991,2.895e-05,0.0,0 STARLINK-3366,1 51104U 22005A   22268.52854603  .00002895  00000-0  19991-3 0  9999,2 51104  53.2170 190.6890 0001752  52.2892 307.8258 15.08846355 38488,6917.861,95.437,540.938,538.514,0.0
51104.0,STARLINK-3366,PAYLOAD,2022-09-25 19:02:39,15.0883217,0.0001724,53.217,189.4998,53.6485,306.4666,-8.280100000000001e-05,-1.605e-05,0.0,0 STARLINK-3366,1 51104U 22005A   22268.79351227 -.00001605  00000-0 -82801-4 0  9993,2 51104  53.2170 189.4998 0001724  53.6485 306.4666 15.08832170 39631,6917.904,95.438,540.962,538.577,0.0
51104.0,STARLINK-3366,PAYLOAD,2022-09-25 20:38:02,15.08831901,0.0001746,53.217,189.2025,53.5728,306.5425,-9.4178e-05,-1.786e-05,0.0,0 STARLINK-3366,1 51104U 22005A   22268.85975248 -.00001786  00000-0 -94178-4 0  9995,2 51104  53.2170 189.2025 0001746  53.5728 306.5425 15.08831901 38536,6917.905,95.438,540.9780000000002,538.562,0.0
51104.0,STARLINK-3366,PAYLOAD,2022-09-26 06:10:21,15.08834852,0.0001737,53.2175,187.4184,52.6072,307.5078,1.9057e-05,1.5e-07,0.0,0 STARLINK-3366,1 51104U 22005A   22269.25719313  .00000015  00000-0  19057-4 0  9994,2 51104  53.2175 187.4184 0001737  52.6072 307.5078 15.08834852 38598,6917.896,95.438,540.9630000000002,538.559,0.0
51104.0,STARLINK-3366,PAYLOAD,2022-09-26 20:28:50,15.08826556,0.0001717,53.2175,184.7424,52.0467,308.068,-3.7674e-05,-8.87e-06,0.0,0 STARLINK-3366,1 51104U 22005A   22269.85336233 -.00000887  00000-0 -37674-4 0  9990,2 51104  53.2175 184.7424 0001717  52.0467 308.0680 15.08826556 38682,6917.920999999999,95.438,540.974,538.599,0.0
51104.0,STARLINK-3366,PAYLOAD,2022-09-27 04:25:45,15.08832497,0.0001729,53.2176,183.2556,51.8673,308.2475,-1.5134e-05,-5.29e-06,0.0,0 STARLINK-3366,1 51104U 22005A   22270.18456000 -.00000529  00000-0 -15134-4 0  9993,2 51104  53.2176 183.2556 0001729  51.8673 308.2475 15.08832497 39846,6917.903,95.438,540.964,538.572,0.0
51104.0,STARLINK-3366,PAYLOAD,2022-09-27 06:01:08,15.08835653,0.000173,53.2175,182.9582,52.0303,308.0845,-3.9123e-06,-3.5000000000000016e-06,0.0,0 STARLINK-3366,1 51104U 22005A   22270.25079787 -.00000350  00000-0 -39123-5 0  9991,2 51104  53.2175 182.9582 0001730  52.0303 308.0845 15.08835653 38749,6917.894,95.438,540.955,538.562,0.0
51104.0,STARLINK-3366,PAYLOAD,2022-09-27 18:44:13,15.08842205,0.0001758,53.2175,180.5792,51.6645,308.4505,0.00019305,2.786e-05,0.0,0 STARLINK-3366,1 51104U 22005A   22270.78070819  .00002786  00000-0  19305-3 0  9997,2 51104  53.2175 180.5792 0001758  51.6645 308.4505 15.08842205 39930,6917.874,95.437,540.955,538.5219999999998,0.0
51104.0,STARLINK-3366,PAYLOAD,2022-09-27 20:19:36,15.08843978,0.0001756,53.2176,180.2818,51.8496,308.2655,0.00020867,3.035e-05,0.0,0 STARLINK-3366,1 51104U 22005A   22270.84694707  .00003035  00000-0  20867-3 0  9995,2 51104  53.2176 180.2818 0001756  51.8496 308.2655 15.08843978 38831,6917.868,95.437,540.948,538.518,0.0
